NORAD_CAT_ID,OBJECT_NAME,OBJECT_TYPE,EPOCH,MEAN_MOTION,ECCENTRICITY,INCLINATION,RA_OF_ASC_NODE,ARG_OF_PERICENTER,MEAN_ANOMALY,BSTAR,MEAN_MOTION_DOT,MEAN_MOTION_DDOT,TLE_LINE0,TLE_LINE1,TLE_LINE2,SEMIMAJOR_AXIS,PERIOD,APOGEE,PERIGEE,DECAYED
53728.0,STARLINK-4640,PAYLOAD,2024-07-05 05:31:11,15.08848239,0.0001573,53.2167,123.5106,97.9942,262.1229,0.00046968,7.197e-05,0.0,0 STARLINK-4640,1 53728U 22107AE  24187.22999700  .00007197  00000-0  46968-3 0  9997,2 53728  53.2167 123.5106 0001573  97.9942 262.1229 15.08848239102099,6917.855,95.437,540.808,538.632,0.0
53728.0,STARLINK-4640,PAYLOAD,2024-07-06 02:11:12,15.08841015,0.0001499,53.2168,119.6434,100.5431,259.573,9.7755e-05,1.268e-05,0.0,0 STARLINK-4640,1 53728U 22107AE  24188.09111871  .00001268  00000-0  97755-4 0  9992,2 53728  53.2168 119.6434 0001499 100.5431 259.5730 15.08841015101621,6917.877,95.437,540.779,538.705,0.0
53728.0,STARLINK-4640,PAYLOAD,2024-07-06 22:51:13,15.08836692,0.0001529,53.2171,115.7772,101.2099,258.9065,6.1212e-05,6.86e-06,0.0,0 STARLINK-4640,1 53728U 22107AE  24188.95224190  .00000686  00000-0  61212-4 0  9998,2 53728  53.2171 115.7772 0001529 101.2099 258.9065 15.08836692102359,6917.891,95.438,540.813,538.698,0.0
53728.0,STARLINK-4640,PAYLOAD,2024-07-07 05:12:46,15.08834113,0.0001479,53.217,114.5884,100.1369,259.979,-1.1021e-05,-4.63e-06,0.0,0 STARLINK-4640,1 53728U 22107AE  24189.21720399 -.00000463  00000-0 -11021-4 0  9998,2 53728  53.2170 114.5884 0001479 100.1369 259.9790 15.08834113101790,6917.898,95.438,540.787,538.74,0.0
53728.0,STARLINK-4640,PAYLOAD,2024-07-08 11:25:05,15.08850529,0.0001322,53.2175,108.9423,94.9578,265.1565,0.00022096,3.231e-05,0.0,0 STARLINK-4640,1 53728U 22107AE  24190.47575260  .00003231  00000-0  22096-3 0  9990,2 53728  53.2175 108.9423 0001322  94.9578 265.1565 15.08850529101989,6917.848,95.437,540.628,538.799,0.0
53728.0,STARLINK-4640,PAYLOAD,2024-07-08 22:32:48,15.08838931,0.0002568,53.2165,106.8603,88.1861,271.9425,9.2463e-05,1.183e-05,0.0,0 STARLINK-4640,1 53728U 22107AE  24190.93944532  .00001183  00000-0  92463-4 0  9993,2 53728  53.2165 106.8603 0002568  88.1861 271.9425 15.08838931102656,6917.884,95.438,541.525,537.972,0.0
53728.0,STARLINK-4640,PAYLOAD,2024-07-09 04:54:20,15.08839142,0.0001329,53.2163,105.6722,102.4311,257.683,7.0924e-05,8.41e-06,0.0,0 STARLINK-4640,1 53728U 22107AE  24191.20440212  .00000841  00000-0  70924-4 0  9998,2 53728  53.2163 105.6722 0001329 102.4311 257.6830 15.08839142102091,6917.883,95.438,540.667,538.829,0.0
53728.0,STARLINK-4640,PAYLOAD,2024-07-09 11:15:52,15.08849256,0.0001322,53.2169,104.4834,89.5859,270.5285,0.00017321,2.47e-05,0.0,0 STARLINK-4640,1 53728U 22107AE  24191.46935733  .00002470  00000-0  17321-3 0  9994,2 53728  53.2169 104.4834 0001322  89.5859 270.5285 15.08849256102739,6917.852,95.437,540.632,538.803,0.0
53728.0,STARLINK-4640,PAYLOAD,2024-07-09 22:23:35,15.08829588,0.0001288,53.2175,102.4022,96.7327,263.3812,-9.0792e-05,-1.732e-05,0.0,0 STARLINK-4640,1 53728U 22107AE  24191.93304877 -.00001732  00000-0 -90792-4 0  9991,2 53728  53.2175 102.4022 0001288  96.7327 263.3812 15.08829588102804,6917.912,95.438,540.668,538.886,0.0
53728.0,STARLINK-4640,PAYLOAD,2024-07-10 03:09:44,15.0883735,0.000135,53.216,101.5098,91.6361,268.4785,5.3203e-05,5.59e-06,0.0,0 STARLINK-4640,1 53728U 22107AE  24192.13176603  .00000559  00000-0  53203-4 0  9998,2 53728  53.2160 101.5098 0001350  91.6361 268.4785 15.08837350102231,6917.888,95.438,540.687,538.82,0.0
53728.0,STARLINK-4640,PAYLOAD,2024-07-10 11:06:40,15.0884394,0.0001438,53.2167,100.0213,85.6021,274.5136,0.00033232,5.005e-05,0.0,0 STARLINK-4640,1 53728U 22107AE  24192.46296466  .00005005  00000-0  33232-3 0  9994,2 53728  53.2167 100.0213 0001438  85.6021 274.5136 15.08843940102885,6917.868,95.437,540.728,538.739,0.0
53728.0,STARLINK-4640,PAYLOAD,2024-07-10 22:14:22,15.08834058,0.0001436,53.216,97.9395,89.5872,270.5285,0.00011614,1.561e-05,0.0,0 STARLINK-4640,1 53728U 22107AE  24192.92664998  .00001561  00000-0  11614-3 0  9997,2 53728  53.2160  97.9395 0001436  89.5872 270.5285 15.08834058102957,6917.899,95.438,540.757,538.77,0.0
53728.0,STARLINK-4640,PAYLOAD,2024-07-11 12:32:50,15.08851654,0.0001261,53.2152,95.2646,89.594,270.5197,0.0003731,5.657e-05,0.0,0 STARLINK-4640,1 53728U 22107AE  24193.52280336  .00005657  00000-0  37310-3 0  9995,2 53728  53.2152  95.2646 0001261  89.5940 270.5197 15.08851654103044,6917.845,95.437,540.582,538.837,0.0
53728.0,STARLINK-4640,PAYLOAD,2024-07-11 23:40:32,15.08849639,0.0001384,53.2157,93.1799,89.5756,270.5395,0.00039974,6.081e-05,0.0,0 STARLINK-4640,1 53728U 22107AE  24193.98648677  .00006081  00000-0  39974-3 0  9991,2 53728  53.2157  93.1799 0001384  89.5756 270.5395 15.08849639102517,6917.851,95.437,540.673,538.758,0.0
53728.0,STARLINK-4640,PAYLOAD,2024-07-12 10:48:14,15.08854124,0.0001403,53.2171,91.0987,94.8237,265.2915,0.00039473,6.002e-05,0.0,0 STARLINK-4640,1 53728U 22107AE  24194.45016363  .00006002  00000-0  39473-3 0  9992,2 53728  53.2171  91.0987 0001403  94.8237 265.2915 15.08854124103182,6917.837,95.437,540.673,538.732,0.0
53728.0,STARLINK-4640,PAYLOAD,2024-07-12 20:20:33,15.08842353,0.0001333,53.2148,89.3161,92.2564,267.8581,0.00012767,1.745e-05,0.0,0 STARLINK-4640,1 53728U 22107AE  24194.84760658  .00001745  00000-0  12767-3 0  9994,2 53728  53.2148  89.3161 0001333  92.2564 267.8581 15.08842353102645,6917.873,95.437,540.66,538.816,0.0
53728.0,STARLINK-4640,PAYLOAD,2024-07-12 21:55:56,15.08845977,0.0001471,53.2149,89.0191,90.6179,269.4982,0.00026359,3.91e-05,0.0,0 STARLINK-4640,1 53728U 22107AE  24194.91384554  .00003910  00000-0  26359-3 0  9997,2 53728  53.2149  89.0191 0001471  90.6179 269.4982 15.08845977103259,6917.862,95.437,540.745,538.71,0.0
53728.0,STARLINK-4640,PAYLOAD,2024-07-12 23:31:19,15.0884329,0.000142,53.2155,88.7214,96.8107,263.3047,0.00044705,6.835e-05,0.0,0 STARLINK-4640,1 53728U 22107AE  24194.98008571  .00006835  00000-0  44705-3 0  9990,2 53728  53.2155  88.7214 0001420  96.8107 263.3047 15.08843290103263,6917.87,95.437,540.718,538.753,0.0
53728.0,STARLINK-4640,PAYLOAD,2024-07-13 21:46:43,15.08844638,0.0001416,53.2153,84.558,96.3721,263.7432,0.00037857,5.743e-05,0.0,0 STARLINK-4640,1 53728U 22107AE  24195.90744721  .00005743  00000-0  37857-3 0  9994,2 53728  53.2153  84.5580 0001416  96.3721 263.7432 15.08844638103408,6917.866,95.437,540.711,538.752,0.0
53728.0,STARLINK-4640,PAYLOAD,2024-07-14 02:32:52,15.08848578,0.0001259,53.2155,83.6674,79.1094,281.0039,0.00022752,3.336e-05,0.0,0 STARLINK-4640,1 53728U 22107AE  24196.10616529  .00003336  00000-0  22752-3 0  9995,2 53728  53.2155  83.6674 0001259  79.1094 281.0039 15.08848578102830,6917.854,95.437,540.59,538.848,0.0
53728.0,STARLINK-4640,PAYLOAD,2024-07-14 21:37:30,15.08837299,0.0001282,53.215,80.096,82.9104,277.2034,8.6765e-05,1.093e-05,0.0,0 STARLINK-4640,1 53728U 22107AE  24196.90105057  .00001093  00000-0  86765-4 0  9995,2 53728  53.2150  80.0960 0001282  82.9104 277.2034 15.08837299102957,6917.889,95.438,540.641,538.867,0.0
53728.0,STARLINK-4640,PAYLOAD,2024-07-15 15:06:45,15.08839465,0.0001607,53.2161,76.828,96.4704,263.6471,9.2577e-05,1.186e-05,0.0,0 STARLINK-4640,1 53728U 22107AE  24197.62969138  .00001186  00000-0  92577-4 0  9994,2 53728  53.2161  76.8280 0001607  96.4704 263.6471 15.08839465103664,6917.882,95.438,540.859,538.635,0.0
53728.0,STARLINK-4640,PAYLOAD,2024-07-15 23:03:40,15.08843335,0.0001344,53.2176,75.344,103.2215,256.8927,-9.2385e-05,-1.758e-05,0.0,0 STARLINK-4640,1 53728U 22107AE  24197.96088848 -.00001758  00000-0 -92385-4 0  9995,2 53728  53.2176  75.3440 0001344 103.2215 256.8927 15.08843335103711,6917.87,95.437,540.665,538.805,0.0
53728.0,STARLINK-4640,PAYLOAD,2024-07-16 21:19:04,15.08845052,0.0001497,53.2177,71.1806,115.4822,244.6325,0.00023142,3.397e-05,0.0,0 STARLINK-4640,1 53728U 22107AE  24198.88824673  .00003397  00000-0  23142-3 0  9994,2 53728  53.2177  71.1806 0001497 115.4822 244.6325 15.08845052103850,6917.865,95.437,540.766,538.694,0.0
53728.0,STARLINK-4640,PAYLOAD,2024-07-17 00:29:50,15.08849934,0.0001176,53.216,70.5848,95.0116,265.101,0.0002815,4.196e-05,0.0,0 STARLINK-4640,1 53728U 22107AE  24199.02072503  .00004196  00000-0  28150-3 0  9990,2 53728  53.2160  70.5848 0001176  95.0116 265.1010 15.08849934103272,6917.85,95.437,540.529,538.901,0.0
53728.0,STARLINK-4640,PAYLOAD,2024-07-17 08:26:46,15.08849711,0.0001281,53.2165,69.0971,92.4583,267.6555,0.00018552,2.667e-05,0.0,0 STARLINK-4640,1 53728U 22107AE  24199.35192251  .00002667  00000-0  18552-3 0  9995,2 53728  53.2165  69.0971 0001281  92.4583 267.6555 15.08849711103929,6917.851,95.437,540.602,538.83,0.0
53728.0,STARLINK-4640,PAYLOAD,2024-07-17 21:09:52,15.08824433,0.0001338,53.2171,66.7111,71.7325,288.3813,-0.00035071,-5.863e-05,0.0,0 STARLINK-4640,1 53728U 22107AE  24199.88185497 -.00005863  00000-0 -35071-3 0  9995,2 53728  53.2171  66.7111 0001338  71.7325 288.3813 15.08824433103407,6917.928,95.439,540.719,538.867,0.0
53728.0,STARLINK-4640,PAYLOAD,2024-07-17 22:45:15,15.08834616,0.0001119,53.2171,66.4138,72.1107,288.0007,-0.00011589,-2.131e-05,0.0,0 STARLINK-4640,1 53728U 22107AE  24199.94809191 -.00002131  00000-0 -11589-3 0  9999,2 53728  53.2171  66.4138 0001119  72.1107 288.0007 15.08834616104017,6917.897,95.438,540.536,538.988,0.0
53728.0,STARLINK-4640,PAYLOAD,2024-07-18 00:20:38,15.08834348,0.0001083,53.2174,66.1173,81.199,278.9125,-9.2802e-05,-1.764e-05,0.0,0 STARLINK-4640,1 53728U 22107AE  24200.01433233 -.00001764  00000-0 -92802-4 0  9999,2 53728  53.2174  66.1173 0001083  81.1990 278.9125 15.08834348103421,6917.898,95.438,540.512,539.013,0.0
53728.0,STARLINK-4640,PAYLOAD,2024-07-18 08:17:33,15.08847192,0.0001171,53.2174,64.6337,86.8694,273.2432,0.00025308,3.743e-05,0.0,0 STARLINK-4640,1 53728U 22107AE  24200.34552933  .00003743  00000-0  25308-3 0  9997,2 53728  53.2174  64.6337 0001171  86.8694 273.2432 15.08847192104079,6917.858,95.437,540.533,538.913,0.0
